[{"OBJECT_NAME":"ONEWEB-0095","OBJECT_ID":"2020-020N","EPOCH":"2025-12-24T04:11:25.854720","MEAN_MOTION":13.11414532,"ECCENTRICITY":0.00016706,"INCLINATION":87.8844,"RA_OF_ASC_NODE":55.9118,"ARG_OF_PERICENTER":127.9389,"MEAN_ANOMALY":232.189,"EPHEMERIS_TYPE":0,"CLASSIFICATION_TYPE":"U","NORAD_CAT_ID":45436,"ELEMENT_SET_NO":999,"REV_AT_EPOCH":27973,"BSTAR":0.00044635826,"MEAN_MOTION_DOT":1.71e-6,"MEAN_MOTION_DDOT":0},{"OBJECT_NAME":"ONEWEB-0092","OBJECT_ID":"2020-020P","EPOCH":"2025-12-24T03:30:57.639744","MEAN_MOTION":13.11416851,"ECCENTRICITY":0.00017594,"INCLINATION":87.885,"RA_OF_ASC_NODE":55.9163,"ARG_OF_PERICENTER":110.2962,"MEAN_ANOMALY":249.8355,"EPHEMERIS_TYPE":0,"CLASSIFICATION_TYPE":"U","NORAD_CAT_ID":45437,"ELEMENT_SET_NO":999,"REV_AT_EPOCH":27984,"BSTAR":0.0011928708,"MEAN_MOTION_DOT":4.35e-6,"MEAN_MOTION_DDOT":0},{"OBJECT_NAME":"ONEWEB-0085","OBJECT_ID":"2020-020Q","EPOCH":"2025-12-24T04:23:25.201248","MEAN_MOTION":13.11413305,"ECCENTRICITY":0.00018089,"INCLINATION":87.8849,"RA_OF_ASC_NODE":55.9177,"ARG_OF_PERICENTER":102.7805,"MEAN_ANOMALY":257.3526,"EPHEMERIS_TYPE":0,"CLASSIFICATION_TYPE":"U","NORAD_CAT_ID":45438,"ELEMENT_SET_NO":999,"REV_AT_EPOCH":27973,"BSTAR":-0.00093383462,"MEAN_MOTION_DOT":-3.18e-6,"MEAN_MOTION_DDOT":0},{"OBJECT_NAME":"ONEWEB-0096","OBJECT_ID":"2020-020R","EPOCH":"2025-12-24T04:25:51.792672","MEAN_MOTION":13.1141419,"ECCENTRICITY":0.00018423,"INCLINATION":87.8856,"RA_OF_ASC_NODE":55.8985,"ARG_OF_PERICENTER":102.0461,"MEAN_ANOMALY":258.0874,"EPHEMERIS_TYPE":0,"CLASSIFICATION_TYPE":"U","NORAD_CAT_ID":45439,"ELEMENT_SET_NO":999,"REV_AT_EPOCH":27972,"BSTAR":-0.00076741934,"MEAN_MOTION_DOT":-2.59e-6,"MEAN_MOTION_DDOT":0},{"OBJECT_NAME":"ONEWEB-0037","OBJECT_ID":"2020-020S","EPOCH":"2025-12-24T03:57:48.327552","MEAN_MOTION":13.11414129,"ECCENTRICITY":0.00018159,"INCLINATION":87.886,"RA_OF_ASC_NODE":55.8727,"ARG_OF_PERICENTER":107.0387,"MEAN_ANOMALY":253.094,"EPHEMERIS_TYPE":0,"CLASSIFICATION_TYPE":"U","NORAD_CAT_ID":45440,"ELEMENT_SET_NO":999,"REV_AT_EPOCH":27975,"BSTAR":0.0012465459,"MEAN_MOTION_DOT":4.54e-6,"MEAN_MOTION_DDOT":0},{"OBJECT_NAME":"ONEWEB-0042","OBJECT_ID":"2020-020T","EPOCH":"2025-12-24T06:00:53.436672","MEAN_MOTION":13.1141342,"ECCENTRICITY":0.00018454,"INCLINATION":87.8853,"RA_OF_ASC_NODE":55.8846,"ARG_OF_PERICENTER":104.7843,"MEAN_ANOMALY":255.349,"EPHEMERIS_TYPE":0,"CLASSIFICATION_TYPE":"U","NORAD_CAT_ID":45441,"ELEMENT_SET_NO":999,"REV_AT_EPOCH":27973,"BSTAR":0.00039046522,"MEAN_MOTION_DOT":1.51e-6,"MEAN_MOTION_DDOT":0},{"OBJECT_NAME":"ONEWEB-0098","OBJECT_ID":"2020-020U","EPOCH":"2025-12-24T05:54:59.849856","MEAN_MOTION":13.11414075,"ECCENTRICITY":0.00017479,"INCLINATION":87.885,"RA_OF_ASC_NODE":55.8971,"ARG_OF_PERICENTER":98.8381,"MEAN_ANOMALY":261.2945,"EPHEMERIS_TYPE":0,"CLASSIFICATION_TYPE":"U","NORAD_CAT_ID":45442,"ELEMENT_SET_NO":999,"REV_AT_EPOCH":27971,"BSTAR":0.00094156393,"MEAN_MOTION_DOT":3.46e-6,"MEAN_MOTION_DDOT":0},{"OBJECT_NAME":"ONEWEB-0055","OBJECT_ID":"2020-020V","EPOCH":"2025-12-24T03:40:43.359168","MEAN_MOTION":13.11415623,"ECCENTRICITY":0.0001696,"INCLINATION":87.8849,"RA_OF_ASC_NODE":55.9161,"ARG_OF_PERICENTER":99.4526,"MEAN_ANOMALY":260.6793,"EPHEMERIS_TYPE":0,"CLASSIFICATION_TYPE":"U","NORAD_CAT_ID":45443,"ELEMENT_SET_NO":999,"REV_AT_EPOCH":27967,"BSTAR":0.0015375384,"MEAN_MOTION_DOT":5.58e-6,"MEAN_MOTION_DDOT":0},{"OBJECT_NAME":"ONEWEB-0093","OBJECT_ID":"2020-020W","EPOCH":"2025-12-24T04:55:22.102752","MEAN_MOTION":13.11419068,"ECCENTRICITY":0.00022053,"INCLINATION":87.8858,"RA_OF_ASC_NODE":55.8936,"ARG_OF_PERICENTER":103.1331,"MEAN_ANOMALY":257.0043,"EPHEMERIS_TYPE":0,"CLASSIFICATION_TYPE":"U","NORAD_CAT_ID":45444,"ELEMENT_SET_NO":999,"REV_AT_EPOCH":27974,"BSTAR":-0.00098361447,"MEAN_MOTION_DOT":-3.36e-6,"MEAN_MOTION_DDOT":0},{"OBJECT_NAME":"ONEWEB-0029","OBJECT_ID":"2020-020X","EPOCH":"2025-12-24T03:28:29.568288","MEAN_MOTION":13.11419844,"ECCENTRICITY":0.00019008,"INCLINATION":87.8855,"RA_OF_ASC_NODE":55.9177,"ARG_OF_PERICENTER":99.2059,"MEAN_ANOMALY":260.9284,"EPHEMERIS_TYPE":0,"CLASSIFICATION_TYPE":"U","NORAD_CAT_ID":45445,"ELEMENT_SET_NO":999,"REV_AT_EPOCH":27971,"BSTAR":0.0011882403,"MEAN_MOTION_DOT":4.34e-6,"MEAN_MOTION_DDOT":0},{"OBJECT_NAME":"ONEWEB-0068","OBJECT_ID":"2020-020Y","EPOCH":"2025-12-24T04:54:57.844224","MEAN_MOTION":13.11418454,"ECCENTRICITY":0.00019408,"INCLINATION":87.8857,"RA_OF_ASC_NODE":55.8952,"ARG_OF_PERICENTER":98.7952,"MEAN_ANOMALY":261.3396,"EPHEMERIS_TYPE":0,"CLASSIFICATION_TYPE":"U","NORAD_CAT_ID":45446,"ELEMENT_SET_NO":999,"REV_AT_EPOCH":27966,"BSTAR":-0.0013978949,"MEAN_MOTION_DOT":-4.83e-6,"MEAN_MOTION_DDOT":0},{"OBJECT_NAME":"ONEWEB-0046","OBJECT_ID":"2020-020Z","EPOCH":"2025-12-24T04:42:58.213440","MEAN_MOTION":13.1141752,"ECCENTRICITY":0.00019591,"INCLINATION":87.886,"RA_OF_ASC_NODE":55.9061,"ARG_OF_PERICENTER":105.5225,"MEAN_ANOMALY":254.6119,"EPHEMERIS_TYPE":0,"CLASSIFICATION_TYPE":"U","NORAD_CAT_ID":45447,"ELEMENT_SET_NO":999,"REV_AT_EPOCH":27967,"BSTAR":-0.0011617509,"MEAN_MOTION_DOT":-3.99e-6,"MEAN_MOTION_DDOT":0},{"OBJECT_NAME":"ONEWEB-0063","OBJECT_ID":"2020-020AA","EPOCH":"2025-12-24T03:34:36.239520","MEAN_MOTION":13.11418588,"ECCENTRICITY":0.00018547,"INCLINATION":87.8858,"RA_OF_ASC_NODE":55.9118,"ARG_OF_PERICENTER":108.4458,"MEAN_ANOMALY":251.6872,"EPHEMERIS_TYPE":0,"CLASSIFICATION_TYPE":"U","NORAD_CAT_ID":45448,"ELEMENT_SET_NO":999,"REV_AT_EPOCH":27975,"BSTAR":0.00041237578,"MEAN_MOTION_DOT":1.59e-6,"MEAN_MOTION_DDOT":0},{"OBJECT_NAME":"ONEWEB-0019","OBJECT_ID":"2020-020AB","EPOCH":"2025-12-24T04:33:27.089568","MEAN_MOTION":13.11991802,"ECCENTRICITY":0.0001715,"INCLINATION":87.8843,"RA_OF_ASC_NODE":55.9078,"ARG_OF_PERICENTER":98.6612,"MEAN_ANOMALY":261.4711,"EPHEMERIS_TYPE":0,"CLASSIFICATION_TYPE":"U","NORAD_CAT_ID":45449,"ELEMENT_SET_NO":999,"REV_AT_EPOCH":27960,"BSTAR":-0.00093514892,"MEAN_MOTION_DOT":-3.21e-6,"MEAN_MOTION_DDOT":0},{"OBJECT_NAME":"ONEWEB-0094","OBJECT_ID":"2020-020AC","EPOCH":"2025-12-24T04:04:54.171552","MEAN_MOTION":13.17647356,"ECCENTRICITY":0.00018751,"INCLINATION":87.9109,"RA_OF_ASC_NODE":40.6327,"ARG_OF_PERICENTER":95.0081,"MEAN_ANOMALY":265.1264,"EPHEMERIS_TYPE":0,"CLASSIFICATION_TYPE":"U","NORAD_CAT_ID":45450,"ELEMENT_SET_NO":999,"REV_AT_EPOCH":28326,"BSTAR":-0.00011673611,"MEAN_MOTION_DOT":-3.2e-7,"MEAN_MOTION_DDOT":0},{"OBJECT_NAME":"ONEWEB-0087","OBJECT_ID":"2020-020AD","EPOCH":"2025-12-24T05:38:56.317920","MEAN_MOTION":13.11416901,"ECCENTRICITY":0.00020632,"INCLINATION":87.8865,"RA_OF_ASC_NODE":55.8547,"ARG_OF_PERICENTER":99.2884,"MEAN_ANOMALY":260.8478,"EPHEMERIS_TYPE":0,"CLASSIFICATION_TYPE":"U","NORAD_CAT_ID":45451,"ELEMENT_SET_NO":999,"REV_AT_EPOCH":27965,"BSTAR":0.0013837662,"MEAN_MOTION_DOT":5.03e-6,"MEAN_MOTION_DDOT":0}]
