ONEWEB-0095             
1 45436U 20020N   25358.17460480  .00000171  00000+0  44636-3 0  9993
2 45436  87.8844  55.9118 0001670 127.9389 232.1890 13.11414532279733
ONEWEB-0092             
1 45437U 20020P   25358.14650046  .00000435  00000+0  11929-2 0  9991
2 45437  87.8850  55.9163 0001759 110.2962 249.8355 13.11416851279840
ONEWEB-0085             
1 45438U 20020Q   25358.18293057 -.00000318  00000+0 -93383-3 0  9998
2 45438  87.8849  55.9177 0001808 102.7805 257.3526 13.11413305279734
ONEWEB-0096             
1 45439U 20020R   25358.18462723 -.00000259  00000+0 -76742-3 0  9991
2 45439  87.8856  55.8985 0001842 102.0461 258.0874 13.11414190279724
ONEWEB-0037             
1 45440U 20020S   25358.16514268  .00000454  00000+0  12465-2 0  9999
2 45440  87.8860  55.8727 0001815 107.0387 253.0940 13.11414129279751
ONEWEB-0042             
1 45441U 20020T   25358.25061848  .00000151  00000+0  39047-3 0  9991
2 45441  87.8853  55.8846 0001845 104.7843 255.3490 13.11413420279736
ONEWEB-0098             
1 45442U 20020U   25358.24652604  .00000346  00000+0  94156-3 0  9995
2 45442  87.8850  55.8971 0001747  98.8381 261.2945 13.11414075279710
ONEWEB-0055             
1 45443U 20020V   25358.15327962  .00000558  00000+0  15375-2 0  9992
2 45443  87.8849  55.9161 0001696  99.4526 260.6793 13.11415623279671
ONEWEB-0093             
1 45444U 20020W   25358.20511693 -.00000336  00000+0 -98361-3 0  9998
2 45444  87.8858  55.8936 0002205 103.1331 257.0043 13.11419068279748
ONEWEB-0029             
1 45445U 20020X   25358.14478667  .00000434  00000+0  11882-2 0  9994
2 45445  87.8855  55.9177 0001900  99.2059 260.9284 13.11419844279716
ONEWEB-0068             
1 45446U 20020Y   25358.20483616 -.00000483  00000+0 -13979-2 0  9997
2 45446  87.8857  55.8952 0001940  98.7952 261.3396 13.11418454279668
ONEWEB-0046             
1 45447U 20020Z   25358.19650710 -.00000399  00000+0 -11618-2 0  9991
2 45447  87.8860  55.9061 0001959 105.5225 254.6119 13.11417520279677
ONEWEB-0063             
1 45448U 20020AA  25358.14903055  .00000159  00000+0  41238-3 0  9994
2 45448  87.8858  55.9118 0001854 108.4458 251.6872 13.11418588279759
ONEWEB-0019             
1 45449U 20020AB  25358.18989687 -.00000321  00000+0 -93515-3 0  9992
2 45449  87.8843  55.9078 0001715  98.6612 261.4711 13.11991802279607
ONEWEB-0094             
1 45450U 20020AC  25358.17007143 -.00000032  00000+0 -11674-3 0  9996
2 45450  87.9109  40.6327 0001875  95.0081 265.1264 13.17647356283260
ONEWEB-0087             
1 45451U 20020AD  25358.23537405  .00000503  00000+0  13838-2 0  9997
2 45451  87.8865  55.8547 0002063  99.2884 260.8478 13.11416901279659
